#dP2024  8 28  0  0  0.00000000      96 __u+U IGS20 FIT  IAC
## 2329 259200.00000000   900.00000000 60550 0.0000000000000
+  131   C01C02C03C04C05C06C07C08C09C10C11C12C13C14C16C19C20
+        C21C22C23C24C25C26C27C28C29C30C32C33C34C35C36C37C38
+        C39C40C41C42C43C44C45C59C60C62E02E03E04E05E06E07E08
+        E09E10E11E12E13E14E15E19E21E24E25E26E27E29E30E31E33
+        E34E36G01G02G03G04G05G06G07G08G09G10G11G12G13G14G15
+        G16G17G18G19G20G21G22G23G24G25G26G27G28G29G30G31G32
+        J02J03J04J07R02R03R04R05R06R07R08R09R10R11R12R13R14
+        R15R16R17R18R19R20R21R22R23R24R25R26  0  0  0  0  0
++        17  0 16 16 16  9  9  9  9  9  9  9  9  9  9  7  7
++         7  7  7  7  7  7  7  7  7  7  7  7  7  7  7  7  8
++         8  8  7  7  7  7  7 17 17 17  4  4  4  4  4  4  4
++         4  4  4  4  4  4  5  4  4  4  4  4  4  5  4  4  4
++         5  4  6  4  4  4  3  4  4  4  4  4  4  4  4  4  4
++         4  4  4  4  4  4  4  4  4  4  3  4  4  4  4  3  4
++        10 11 11 17  6  6  6  6 15  6  6  6 15  6  6 15  6
++         6  6  6  6  7  8  6  6 15  6  8  8  0  0  0  0  0
%c M  cc GPS ccc cccc cccc cccc cccc ccccc ccccc ccccc ccccc
%c cc cc ccc ccc cccc cccc cccc cccc ccccc ccccc ccccc ccccc
%f  0.0000000  0.000000000  0.00000000000  0.000000000000000
%f  0.0000000  0.000000000  0.00000000000  0.000000000000000
%i    0    0    0    0      0      0      0      0         0
%i    0    0    0    0      0      0      0      0         0
/* INFORMATION & ANALYSIS CENTER (IAC)            RAPID DATA
/* S/V CLOCKS ARE ALIGNED TO GNSS TIME                      
/* G:C1WC2W R:C1PC2P E:C1XC5X C:C2IC6I J:C1CC2S             
/* PCV:IGS20_2317 OL/AL:FES2004  NONE     YN ORB:CoN CLK:CoN
*  2024 08 28  1  0  0.00000000
PC01 -34302.055193  24503.672312   1074.369834    918.201083
PC02      0.000000      0.000000      0.000000 999999.999999
PC03 -14837.933366  39435.974463    678.334746    808.923961
PC04 -39599.072857  14385.640737   1475.095353   -747.415484
PC05  21883.614461  36048.433264   -602.078491   -418.133618
PC06 -13550.571087  23743.524034 -32088.605416    723.264681
PC07 -12880.609336  40000.473670    381.767955   -423.362117
PC08   2329.656642  30620.359292  28980.667749   -474.355661
PC09  -3183.222563  24135.542227 -33949.255104   -244.383245
PC10  -6859.447418  40748.674173   6945.046762   -148.187988
PC11   -145.917326  16589.590790  22505.951506    734.017892
PC12 -19033.810471  17208.695041  10994.162627   -265.879974
PC13   8563.201840  34333.883553  23305.559308    436.358451
PC14   2131.637820  27277.134095  -5333.270413   -130.366147
PC16 -17008.762843  22524.475635 -31108.024208   -760.800370
PC19  -7977.496200 -22946.833172  13767.230120   -929.796899
PC20   3078.579555 -27662.629736  -2248.322967   -852.486132
PC21 -13425.891411  15920.956281  18563.280331   -937.797521
PC22 -15167.063932  -4790.013863  22916.503034    105.571293
PC23  25005.538764  10354.372069   6826.294888   -822.713782
PC24  -1520.093045  17633.170439 -21589.314009    845.012419
PC25  16949.363899  19464.110048 -10646.620068    490.305671
PC26 -18611.201572   5503.866134 -20055.690750   -340.469958
PC27  24127.558724 -13837.320906  -2288.872764    360.844669
PC28  24746.880180  -2382.623437  12691.116270    279.022925
PC29  -9677.545693 -12989.676649 -22726.420167    327.631113
PC30  10857.723953 -19480.518785 -16773.483478   -181.210913
PC32  13342.346945 -15940.007358 -18622.865901   -715.557424
PC33   8091.116641  22938.160098 -13671.654071   -970.477263
PC34  -9171.760471  19422.044544  17810.259694    508.533919
PC35 -24503.490017   2851.596197 -13086.863269    276.143920
PC36 -16805.047818 -19753.837127  10311.393812    170.415318
PC37  18770.971423  -5060.031601  20043.262914   -903.635165
PC38  -6339.100702  25874.717124  32767.175917    175.891994
PC39 -22642.692601  22248.496600 -27805.371915     -9.678828
PC40 -19691.596451  37040.045547  -1809.118535    -87.985509
PC41  15063.211217   5771.159479 -22726.017519   -918.249450
PC42  -4188.882120  27275.511467   4067.453223   -468.714022
PC43   8735.497357  13673.509242  22693.849031     83.796220
PC44 -23648.841826  14689.268365   2075.352147    576.126431
PC45 -24896.091114 -10815.749533  -6419.338666   -123.019338
PC59 -32286.730285  27093.779809    730.344090     -0.145503
PC60   7329.276553  41516.145279   1115.412724     -0.095545
PC62 -39586.777579  14411.986756   -973.664735     -0.559608
PE02  -8477.916632  18625.893842 -21389.123653    154.733647
PE03 -18290.597389  23259.298298    383.750191   -136.522003
PE04   3229.533798 -23843.532401  17246.102186    -18.785024
PE05 -22220.699242   8997.578140  17356.875596   4778.998537
PE06  -5640.224265 -18517.875781  22375.371365    -19.779374
PE07  12944.943081  10912.525454 -24280.420916   -138.910887
PE08  -4058.889229  24080.479817 -16723.788773   -326.153836
PE09 -12746.261886 -10930.485928  24373.131590   -568.451927
PE10 -15513.465290 -15157.331646 -20143.136697   -651.915037
PE11 -24395.801372 -11407.638466 -12297.744225   1889.133599
PE12  -5380.731578 -16423.978722 -24036.536087  -1185.203949
PE13  24031.429770  11608.964053  12807.319304    -24.229773
PE14  20704.126061 -23854.373305   2175.743926    190.961282
PE15   4657.398535  16343.641522  24239.608767   -123.564820
PE19  19364.179892 -22274.834061  -2265.018501    527.772738
PE21  18005.323930   1139.836265  23470.944267   -613.528878
PE24 -17205.591517 -21073.059413 -11654.056988   -954.845154
PE25 -18111.520670  -1634.858629 -23345.052701      8.455137
PE26  28913.722072   -204.615098  -6359.224604    554.206948
PE27  17299.494619  20925.501289  11804.212806   -437.479089
PE29  22400.494643  -9265.798932 -16988.862485    -25.950455
PE30   6301.079698  28146.737811  -6674.981139   -656.529882
PE31  -6388.829946 -28120.247068   6691.896060    -33.948434
PE33  17596.688464 -11185.366357 -21014.466024     14.924794
PE34 -17109.511484  11444.494854  21258.775378   -130.967099
PE36 -29010.624354   -195.529779   5873.334841   -275.186224
PG01  12346.046913  -9227.204352  21226.862877    211.360129
PG02 -11846.205917 -13269.754543 -19355.942422   -370.144074
PG03 -12876.317504 -23124.155275   2696.768900    516.548212
PG04  -5997.246503 -15738.904754  20516.534305    432.580666
PG05   3057.659368  23259.946927  12198.472849   -184.657870
PG06 -23139.020719   5672.513496  11917.454101     70.087970
PG07 -24993.778002  -7072.449564   7121.964097    -45.426523
PG08   2806.439893 -22482.088484 -13614.465315    331.796164
PG09 -14641.533600  -5105.073732  21477.689312    332.090754
PG10  14630.387541  -2891.060681 -21797.028742   -106.953836
PG11 -10627.107508  12997.882062  20595.001029   -727.450701
PG12   9510.304422  24824.691112   -391.193589   -533.681062
PG13 -12241.940728  21899.982699  -8561.477473    673.285540
PG14 -16784.618863  -1095.201228 -20557.839202    482.355939
PG15    490.381911  22796.771243 -13992.461125    197.563617
PG16   2919.932386 -21483.179081  14696.293581   -196.777368
PG17 -20038.083739  10041.474929 -13962.380848    643.350514
PG18  25229.107089   6428.951740   5830.059833   -649.490008
PG19 -19960.066895  15653.350324  -7258.665390    530.396982
PG20  -4510.759290  17481.321381  19594.914115    371.231786
PG21  -6262.349806 -14588.166489 -21028.444044    102.814694
PG22 -12998.307387   7947.244374 -21364.950446    -55.891819
PG23  17906.987708  10369.295847 -16747.872857    307.131383
PG24   9543.130733  14869.620472 -20374.836194   -486.711983
PG25  16746.290889  18315.319649   9477.008676    499.478261
PG26  10982.187793 -11960.780009  20812.498685     91.556691
PG27  11830.143450 -23144.577505  -4501.600751    -33.488428
PG28  24191.251473  -5493.399955   9483.665952   -389.318015
PG29  11811.658053   9236.101124  21880.642271   -581.489015
PG30 -26425.322675    628.972958  -3640.988154   -332.123376
PG31  15902.882756 -11221.360933  18017.196339   -225.393008
PG32  19295.579142 -11930.174787 -13433.264050   -602.367572
PJ02 -21076.097440  25820.865007 -21148.770101     -0.879479
PJ03 -30552.132250  24354.196985  20884.674096     -2.315470
PJ04 -27945.209302  29474.838699  17261.495898     22.442212
PJ07 -25385.268550  33660.364688    -42.841292     -0.001899
PR02  -9792.921993  21818.074875   9010.408764    -24.353696
PR03  -1699.752673  24030.241944  -8440.268408    106.458128
PR04   6661.270041  13040.610021 -20868.167091    251.955293
PR05  11748.891036  -4799.314073 -22116.884547    136.773026
PR06   8463.161144 -22776.065694  -7750.421614   -177.960335
PR07   1326.896175 -23760.192434   9147.030657     89.698663
PR08  -7043.274261 -12708.569611  21009.059924     -6.394106
PR09   5952.381324  -9837.597662  22796.567388    205.847748
PR10  -7175.612800 -17633.699539  16933.261942   -209.332176
PR11 -18542.780288 -17524.028711    553.566586     13.484338
PR12 -17940.188945  -5453.095173 -17258.858875     44.152810
PR13  -8205.035117   7474.420723 -22974.352350    -50.830222
PR14   9024.055781  18358.595750 -15205.545588     26.869961
PR15  18983.992261  16986.700129   1242.897398     76.427235
PR16  17950.863578   5574.822106  17238.825220     28.635383
PR17   -792.573083  11163.433362  22925.269899    116.998416
PR18  15619.172569   4865.687284  19572.463028    159.175825
PR19  24149.043452  -2232.715054   7931.317095   -289.202636
PR20  19156.553846 -10615.615763 -13043.572427   -118.282271
PR21   1690.385560 -11236.623573 -22840.291503   -129.589878
PR22 -16623.142244  -4946.440306 -18679.618687     60.278383
PR23 -24638.403510   4280.033300  -5015.475274   -131.097765
PR24 -18171.458287  11871.297645  13393.226080    -69.619384
PR25    846.202685 -11361.907625 -22818.614445   -101.020231
PR26  -6420.748164 -14118.425323  20272.580686     13.017407
EOF
